STARLINK-1817           
1 46715U 20073AX  22256.26497064  .00000097  00000+0  25432-4 0  9995
2 46715  53.0540 198.2556 0001523  67.9944 292.1207 15.06405139105191
STARLINK-1818           
1 46716U 20073AY  22256.61191826  .00001413  00000+0  11375-3 0  9995
2 46716  53.0553 211.6758 0001363  76.1413 283.9728 15.06398093105034
STARLINK-1820           
1 46717U 20073AZ  22256.21705550  .00004844  00000+0  34374-3 0  9992
2 46717  53.0534 198.4685 0001368  77.3036 282.8106 15.06410623105665
STARLINK-1821           
1 46718U 20073BA  22256.32346632  .00001686  00000+0  13206-3 0  9999
2 46718  53.0563 212.9692 0001425  95.9758 264.1393 15.06398215104997
STARLINK-1822           
1 46719U 20073BB  22256.50642695 -.00002113  00000+0 -12307-3 0  9997
2 46719  53.0545 177.1632 0001543  67.9079 292.2074 15.06381921105995
STARLINK-1825           
1 46722U 20073BE  22256.35022229  .00000523  00000+0  54008-4 0  9995
2 46722  53.0538 212.8736 0001597  62.8635 297.2517 15.06389059104990
STARLINK-1826           
1 46723U 20073BF  22256.17697325  .00003821  00000+0  27521-3 0  9994
2 46723  53.0540 173.6489 0001421  69.1830 290.9311 15.06407903105538
STARLINK-1828           
1 46725U 20073BH  22256.24700510  .00001429  00000+0  11479-3 0  9992
2 46725  53.0554 213.3308 0001478  77.4353 282.6801 15.06407841104982
STARLINK-1829           
1 46726U 20073BJ  22256.27140553  .00001951  00000+0  14987-3 0  9998
2 46726  53.0544 198.2086 0001204 152.1546 207.9507 15.06396265105192
STARLINK-1830           
1 46727U 20073BK  22256.16225464 -.00010001  00000+0 -65432-3 0  9991
2 46727  53.0548 173.7139 0001125  86.6316 273.4801 15.06350353105533
FLOCK 4V-22             
1 46735U 20061BL  22256.46056169  .00016990  00000+0  73908-3 0  9992
2 46735  97.3788 325.3396 0006324 160.5867 199.5593 15.22302480105114
FLOCK 4V-23             
1 46737U 20061BM  22256.42647874  .00011621  00000+0  50809-3 0  9990
2 46737  97.3863 325.9303 0005243 140.8055 219.3562 15.22223689105045
FLOCK 4V-24             
1 46738U 20061BN  22256.15717331  .00015806  00000+0  68782-3 0  9995
2 46738  97.3966 326.3487 0006087 184.9416 175.1763 15.22308668104575
STARLINK-1848           
1 46740U 20074B   22256.58703782  .00003840  00000+0  27650-3 0  9998
2 46740  53.0535 281.8067 0001391  74.6464 285.4678 15.06405957104727
STARLINK-1865           
1 46741U 20074C   22256.33869855  .00003172  00000+0  23172-3 0  9999
2 46741  53.0539 277.9179 0001277  82.0317 278.0817 15.06401941104750
STARLINK-1872           
1 46742U 20074D   22256.52973430  .00383098  00000+0  18035-1 0  9994
2 46742  53.0533 276.5875 0001019 158.1412 201.9625 15.17269100104795
STARLINK-1892           
1 46743U 20074E   22256.39766687 -.00011332  00000+0 -74191-3 0  9992
2 46743  53.0540 277.6368 0000997 100.0155 260.0946 15.06457390104786
STARLINK-1894           
1 46744U 20074F   22256.28246432  .00003432  00000+0  24917-3 0  9993
2 46744  53.0530 278.1678 0001654  63.0317 297.0841 15.06403885104745
STARLINK-1898           
1 46745U 20074G   22256.24352637  .00203713  00000+0  17931-2 0  9996
2 46745  53.0506 197.1759 0001328 103.0577 257.0586 15.67609608105886
STARLINK-1905           
1 46746U 20074H   22256.29815392  .00001995  00000+0  15275-3 0  9992
2 46746  53.0530 278.1003 0001490  66.2626 293.8519 15.06402193104742
STARLINK-1908           
1 46747U 20074J   22256.27972619  .00000793  00000+0  72100-4 0  9993
2 46747  53.0534 278.1913 0001398  66.9472 293.1665 15.06396560104745
STARLINK-1910           
1 46748U 20074K   22256.35344531  .00000107  00000+0  26102-4 0  9999
2 46748  53.0533 277.8504 0001230  79.9558 280.1570 15.06400087104753
STARLINK-1911           
1 46749U 20074L   22256.36082099 -.00002837  00000+0 -17167-3 0  9993
2 46749  53.0526 277.8233 0001710  61.3662 298.7499 15.06394089104758
STARLINK-1920           
1 46751U 20074N   22256.35712773  .00001687  00000+0  13213-3 0  9992
2 46751  53.0538 277.8424 0001545  88.5366 271.5800 15.06402693104750
STARLINK-1921           
1 46752U 20074P   22256.43454339 -.00000032  00000+0  16741-4 0  9997
2 46752  53.0559 277.4806 0001429  64.6708 295.4429 15.06388875104768
STARLINK-1922           
1 46753U 20074Q   22256.33501133  .00001275  00000+0  10446-3 0  9996
2 46753  53.0554 277.9327 0001425  64.5155 295.5981 15.06400467104753
STARLINK-1923           
1 46754U 20074R   22256.34238806  .00000171  00000+0  30371-4 0  9996
2 46754  53.0547 277.8904 0001195  97.8795 262.2329 15.06397095104758
STARLINK-1924           
1 46755U 20074S   22256.34746528 -.00000053  00000+0  15366-4 0  9999
2 46755  53.0546 282.8682 0001822  53.5243 306.5914 15.06387048104682
STARLINK-1925           
1 46756U 20074T   22256.44333438  .00000454  00000+0  49366-4 0  9994
2 46756  53.0530 282.8373 0001649  71.4737 288.6431 15.06401769104699
STARLINK-1926           
1 46757U 20074U   22256.39171646  .00000226  00000+0  34083-4 0  9997
2 46757  53.0536 282.9099 0001755  51.9338 308.1809 15.06389322104686
STARLINK-1928           
1 46758U 20074V   22256.39538614 -.00000066  00000+0  14501-4 0  9996
2 46758  53.0538 282.6483 0001566  63.1781 296.9368 15.06392181104692
STARLINK-1833           
1 46759U 20074W   22256.39076191  .00001142  00000+0  95532-4 0  9992
2 46759  53.0531 292.6945 0001507  70.0546 290.0605 15.06403092104548
STARLINK-1896           
1 46760U 20074X   22256.40182971 -.00000793  00000+0 -34364-4 0  9999
2 46760  53.0546 292.6441 0001401  60.5189 299.5940 15.06387221104559
STARLINK-1902           
1 46763U 20074AA  22256.32456161  .00393612  00000+0  48476-2 0  9998
2 46763  53.0517 231.3586 0001781  45.1529 314.9627 15.58370130105416
STARLINK-1903           
1 46764U 20074AB  22256.39444468  .00001714  00000+0  13392-3 0  9992
2 46764  53.0537 292.6714 0001593  58.5688 301.5457 15.06400815104551
STARLINK-1906           
1 46765U 20074AC  22256.58243397  .00001116  00000+0  93781-4 0  9999
2 46765  53.0527 291.8118 0001323  83.3928 276.7212 15.06401162104305
STARLINK-1916           
1 46766U 20074AD  22256.50870669  .00002060  00000+0  15715-3 0  9999
2 46766  53.0564 292.1564 0001250  72.1349 287.9777 15.06404068104306
STARLINK-1917           
1 46767U 20074AE  22256.53820946 -.00000649  00000+0 -24671-4 0  9991
2 46767  53.0530 292.0295 0001237  77.4912 282.6215 15.06394781104588
STARLINK-1918           
1 46768U 20074AF  22256.40919141  .00000977  00000+0  84490-4 0  9991
2 46768  53.0546 292.5990 0001651  59.4622 300.6530 15.06400234104572
STARLINK-1932           
1 46770U 20074AH  22256.48298221  .00003729  00000+0  26906-3 0  9996
2 46770  53.0546 292.8252 0001275  68.5893 291.5232 15.06404470104575
STARLINK-1936           
1 46772U 20074AK  22256.54831273  .00000173  00000+0  30544-4 0  9999
2 46772  53.0544 291.9707 0001426  77.9871 282.1277 15.06392681104595
STARLINK-1939           
1 46774U 20074AM  22256.32838442  .00027489  00000+0  13410-2 0  9992
2 46774  53.0471 278.4963 0002669  62.7852 297.3414 15.18122572104753
STARLINK-1946           
1 46776U 20074AP  22256.35935919  .00333165  00000+0  45406-2 0  9995
2 46776  53.0514 236.3504 0006163 273.1719  86.8586 15.55850171105341
STARLINK-1798           
1 46779U 20074AS  22256.44650721  .00000775  00000+0  70888-4 0  9995
2 46779  53.0535 267.4406 0001318  72.9088 287.2045 15.06403046104903
STARLINK-1832           
1 46780U 20074AT  22256.43545578  .00000362  00000+0  43214-4 0  9994
2 46780  53.0540 267.4908 0001354  68.2234 291.8899 15.06398942104905
STARLINK-1834           
1 46781U 20074AU  22256.38661254  .00001693  00000+0  13251-3 0  9994
2 46781  53.0533 277.7122 0001445  78.9560 281.1591 15.06402447104762
STARLINK-1835           
1 46782U 20074AV  22256.35805611  .00002919  00000+0  21480-3 0  9994
2 46782  53.0539 267.8290 0001430  80.0931 280.0220 15.06396267104898
STARLINK-1851           
1 46783U 20074AW  22256.50549678 -.00000244  00000+0  24990-5 0  9991
2 46783  53.0531 267.1743 0001608  62.2923 297.8229 15.06395399104640
STARLINK-1882           
1 46784U 20074AX  22256.30919251 -.00000177  00000+0  70433-5 0  9996
2 46784  53.0532 268.0265 0001532  73.1621 286.9536 15.06395042104884
STARLINK-1883           
1 46785U 20074AY  22256.29539118 -.00000169  00000+0  75378-5 0  9999
2 46785  53.0543 268.1067 0001589  59.1299 300.9846 15.06395410104885
STARLINK-1893           
1 46786U 20074AZ  22256.40780876  .00000811  00000+0  73360-4 0  9993
2 46786  53.0537 247.6155 0001350  84.8757 275.2386 15.06402699105184
STARLINK-1899           
1 46787U 20074BA  22256.13504619  .00004338  00000+0  30987-3 0  9998
2 46787  53.0536 248.8247 0001345  86.6756 273.4387 15.06410607104821
STARLINK-1929           
1 46788U 20074BB  22256.26036311  .00000751  00000+0  69300-4 0  9999
2 46788  53.0538 248.2669 0001693  48.7607 311.3528 15.06409135104841
STARLINK-1930           
1 46789U 20074BC  22256.34978441 -.00001024  00000+0 -49858-4 0  9990
2 46789  53.0537 278.0332 0001632  58.4990 301.6159 15.06395286104758
STARLINK-1931           
1 46790U 20074BD  22256.44559253  .00002533  00000+0  18890-3 0  9994
2 46790  53.0513 277.4469 0001345  74.0114 286.1023 15.06400763104766
STARLINK-1933           
1 46791U 20074BE  22256.32763433  .00002946  00000+0  21652-3 0  9997
2 46791  53.0542 277.9699 0001450  84.9653 275.1502 15.06406109104753
STARLINK-1934           
1 46792U 20074BF  22256.35436339 -.00000331  00000+0 -33424-5 0  9993
2 46792  53.0566 267.8418 0001406  56.9151 303.1973 15.06405387104896
STARLINK-1941           
1 46793U 20074BG  22256.38293391  .00000318  00000+0  40265-4 0  9999
2 46793  53.0551 277.7247 0001399  77.0301 283.0844 15.06399095104434
STARLINK-1942           
1 46794U 20074BH  22256.32395516  .00001802  00000+0  13985-3 0  9993
2 46794  53.0534 277.9910 0001573  68.2426 291.8730 15.06399367104757
